SL-14 R/B               
1 21423U 91042B   26008.45608225  .00000527  00000+0  63605-4 0  9993
2 21423  82.4936 276.6735 0018587  79.8404 280.4905 14.81769337844152
ERS-1                   
1 21574U 91050A   26008.49988105  .00000435  00000+0  15386-3 0  9991
2 21574  98.7897  25.2232 0032338  22.6681 337.5926 14.39391612807075
ARIANE 40 R/B           
1 21610U 91050F   26008.41646963  .00000399  00000+0  13219-3 0  9999
2 21610  98.2126  62.8795 0002050 247.1275 112.9700 14.42840071810305
INTERCOSMOS 25          
1 21819U 91086A   26008.38536070  .00001755  00000+0  34924-3 0  9995
2 21819  82.6087 346.4568 1485941 246.9240  96.8685 12.11837455489380
SL-8 R/B                
1 21876U 92008B   26008.37812266  .00000125  00000+0  11349-3 0  9992
2 21876  82.9286 312.6341 0033637 304.7246 173.2792 13.75965314701125
SL-8 R/B                
1 21938U 92020B   26008.46667485  .00000179  00000+0  16971-3 0  9991
2 21938  82.9291 198.4697 0030188 105.3524 329.4932 13.75535811692851
USA 81                  
1 21949U 92023A   26008.51076112  .00000260  00000+0  89038-4 0  9999
2 21949  85.0093 166.1370 0001356 115.1230 245.0103 14.32339970 86172
COSMOS 2219             
1 22219U 92076A   26008.46398041  .00000187  00000+0  12304-3 0  9999
2 22219  71.0611 143.9684 0020332 290.0145  69.8788 14.14079888709866
SL-16 R/B               
1 22220U 92076B   26008.27196006  .00000182  00000+0  11435-3 0  9996
2 22220  71.0012 315.6416 0013408 197.3046 269.6872 14.16846153713272
COSMOS 2221             
1 22236U 92080A   26008.44190195  .00002942  00000+0  26016-3 0  9997
2 22236  82.5056 336.7641 0015744  40.5946 319.6446 14.95901290771785
SL-16 R/B               
1 22285U 92093B   26008.45767112  .00000058  00000+0  53996-4 0  9999
2 22285  71.0213 130.7108 0003284   6.8263 353.2904 14.15434101704637
COSMOS 2228             
1 22286U 92094A   26008.49759486  .00002425  00000+0  20842-3 0  9993
2 22286  82.5192 294.9324 0018959 139.9685 220.2939 14.96885189767056
