CCSDS_OMM_VERS = 2.0
CREATION_DATE  = 
ORIGINATOR     = 

OBJECT_NAME    = SL-14 R/B
OBJECT_ID      = 1991-042B
CENTER_NAME    = EARTH
REF_FRAME      = TEME
TIME_SYSTEM    = UTC
MEAN_ELEMENT_THEORY = SGP/SGP4

EPOCH          = 2026-01-08T10:56:45.506400
MEAN_MOTION    = 14.81769337
ECCENTRICITY   = .0018587
INCLINATION    = 82.4936
RA_OF_ASC_NODE = 276.6735
ARG_OF_PERICENTER = 79.8404
MEAN_ANOMALY   = 280.4905

EPHEMERIS_TYPE = 0
CLASSIFICATION_TYPE = U
NORAD_CAT_ID   = 21423
ELEMENT_SET_NO = 999
REV_AT_EPOCH   = 84415
BSTAR          = .63605E-4
MEAN_MOTION_DOT = .527E-5
MEAN_MOTION_DDOT = 0

CCSDS_OMM_VERS = 2.0
CREATION_DATE  = 
ORIGINATOR     = 

OBJECT_NAME    = ERS-1
OBJECT_ID      = 1991-050A
CENTER_NAME    = EARTH
REF_FRAME      = TEME
TIME_SYSTEM    = UTC
MEAN_ELEMENT_THEORY = SGP/SGP4

EPOCH          = 2026-01-08T11:59:49.722720
MEAN_MOTION    = 14.39391612
ECCENTRICITY   = .0032338
INCLINATION    = 98.7897
RA_OF_ASC_NODE = 25.2232
ARG_OF_PERICENTER = 22.6681
MEAN_ANOMALY   = 337.5926

EPHEMERIS_TYPE = 0
CLASSIFICATION_TYPE = U
NORAD_CAT_ID   = 21574
ELEMENT_SET_NO = 999
REV_AT_EPOCH   = 80707
BSTAR          = .15386E-3
MEAN_MOTION_DOT = .435E-5
MEAN_MOTION_DDOT = 0

CCSDS_OMM_VERS = 2.0
CREATION_DATE  = 
ORIGINATOR     = 

OBJECT_NAME    = ARIANE 40 R/B
OBJECT_ID      = 1991-050F
CENTER_NAME    = EARTH
REF_FRAME      = TEME
TIME_SYSTEM    = UTC
MEAN_ELEMENT_THEORY = SGP/SGP4

EPOCH          = 2026-01-08T09:59:42.976032
MEAN_MOTION    = 14.42840071
ECCENTRICITY   = .000205
INCLINATION    = 98.2126
RA_OF_ASC_NODE = 62.8795
ARG_OF_PERICENTER = 247.1275
MEAN_ANOMALY   = 112.9700

EPHEMERIS_TYPE = 0
CLASSIFICATION_TYPE = U
NORAD_CAT_ID   = 21610
ELEMENT_SET_NO = 999
REV_AT_EPOCH   = 81030
BSTAR          = .13219E-3
MEAN_MOTION_DOT = .399E-5
MEAN_MOTION_DDOT = 0

CCSDS_OMM_VERS = 2.0
CREATION_DATE  = 
ORIGINATOR     = 

OBJECT_NAME    = INTERCOSMOS 25
OBJECT_ID      = 1991-086A
CENTER_NAME    = EARTH
REF_FRAME      = TEME
TIME_SYSTEM    = UTC
MEAN_ELEMENT_THEORY = SGP/SGP4

EPOCH          = 2026-01-08T09:14:55.164480
MEAN_MOTION    = 12.11837455
ECCENTRICITY   = .1485941
INCLINATION    = 82.6087
RA_OF_ASC_NODE = 346.4568
ARG_OF_PERICENTER = 246.9240
MEAN_ANOMALY   = 96.8685

EPHEMERIS_TYPE = 0
CLASSIFICATION_TYPE = U
NORAD_CAT_ID   = 21819
ELEMENT_SET_NO = 999
REV_AT_EPOCH   = 48938
BSTAR          = .34924E-3
MEAN_MOTION_DOT = .1755E-4
MEAN_MOTION_DDOT = 0

CCSDS_OMM_VERS = 2.0
CREATION_DATE  = 
ORIGINATOR     = 

OBJECT_NAME    = SL-8 R/B
OBJECT_ID      = 1992-008B
CENTER_NAME    = EARTH
REF_FRAME      = TEME
TIME_SYSTEM    = UTC
MEAN_ELEMENT_THEORY = SGP/SGP4

EPOCH          = 2026-01-08T09:04:29.797824
MEAN_MOTION    = 13.75965314
ECCENTRICITY   = .0033637
INCLINATION    = 82.9286
RA_OF_ASC_NODE = 312.6341
ARG_OF_PERICENTER = 304.7246
MEAN_ANOMALY   = 173.2792

EPHEMERIS_TYPE = 0
CLASSIFICATION_TYPE = U
NORAD_CAT_ID   = 21876
ELEMENT_SET_NO = 999
REV_AT_EPOCH   = 70112
BSTAR          = .11349E-3
MEAN_MOTION_DOT = .125E-5
MEAN_MOTION_DDOT = 0

CCSDS_OMM_VERS = 2.0
CREATION_DATE  = 
ORIGINATOR     = 

OBJECT_NAME    = SL-8 R/B
OBJECT_ID      = 1992-020B
CENTER_NAME    = EARTH
REF_FRAME      = TEME
TIME_SYSTEM    = UTC
MEAN_ELEMENT_THEORY = SGP/SGP4

EPOCH          = 2026-01-08T11:12:00.707040
MEAN_MOTION    = 13.75535811
ECCENTRICITY   = .0030188
INCLINATION    = 82.9291
RA_OF_ASC_NODE = 198.4697
ARG_OF_PERICENTER = 105.3524
MEAN_ANOMALY   = 329.4932

EPHEMERIS_TYPE = 0
CLASSIFICATION_TYPE = U
NORAD_CAT_ID   = 21938
ELEMENT_SET_NO = 999
REV_AT_EPOCH   = 69285
BSTAR          = .16971E-3
MEAN_MOTION_DOT = .179E-5
MEAN_MOTION_DDOT = 0

CCSDS_OMM_VERS = 2.0
CREATION_DATE  = 
ORIGINATOR     = 

OBJECT_NAME    = USA 81
OBJECT_ID      = 1992-023A
CENTER_NAME    = EARTH
REF_FRAME      = TEME
TIME_SYSTEM    = UTC
MEAN_ELEMENT_THEORY = SGP/SGP4

EPOCH          = 2026-01-08T12:15:29.760768
MEAN_MOTION    = 14.32339970
ECCENTRICITY   = .0001356
INCLINATION    = 85.0093
RA_OF_ASC_NODE = 166.1370
ARG_OF_PERICENTER = 115.1230
MEAN_ANOMALY   = 245.0103

EPHEMERIS_TYPE = 0
CLASSIFICATION_TYPE = U
NORAD_CAT_ID   = 21949
ELEMENT_SET_NO = 999
REV_AT_EPOCH   = 8617
BSTAR          = .89038E-4
MEAN_MOTION_DOT = .26E-5
MEAN_MOTION_DDOT = 0

CCSDS_OMM_VERS = 2.0
CREATION_DATE  = 
ORIGINATOR     = 

OBJECT_NAME    = COSMOS 2219
OBJECT_ID      = 1992-076A
CENTER_NAME    = EARTH
REF_FRAME      = TEME
TIME_SYSTEM    = UTC
MEAN_ELEMENT_THEORY = SGP/SGP4

EPOCH          = 2026-01-08T11:08:07.907424
MEAN_MOTION    = 14.14079888
ECCENTRICITY   = .0020332
INCLINATION    = 71.0611
RA_OF_ASC_NODE = 143.9684
ARG_OF_PERICENTER = 290.0145
MEAN_ANOMALY   = 69.8788

EPHEMERIS_TYPE = 0
CLASSIFICATION_TYPE = U
NORAD_CAT_ID   = 22219
ELEMENT_SET_NO = 999
REV_AT_EPOCH   = 70986
BSTAR          = .12304E-3
MEAN_MOTION_DOT = .187E-5
MEAN_MOTION_DDOT = 0

CCSDS_OMM_VERS = 2.0
CREATION_DATE  = 
ORIGINATOR     = 

OBJECT_NAME    = SL-16 R/B
OBJECT_ID      = 1992-076B
CENTER_NAME    = EARTH
REF_FRAME      = TEME
TIME_SYSTEM    = UTC
MEAN_ELEMENT_THEORY = SGP/SGP4

EPOCH          = 2026-01-08T06:31:37.349184
MEAN_MOTION    = 14.16846153
ECCENTRICITY   = .0013408
INCLINATION    = 71.0012
RA_OF_ASC_NODE = 315.6416
ARG_OF_PERICENTER = 197.3046
MEAN_ANOMALY   = 269.6872

EPHEMERIS_TYPE = 0
CLASSIFICATION_TYPE = U
NORAD_CAT_ID   = 22220
ELEMENT_SET_NO = 999
REV_AT_EPOCH   = 71327
BSTAR          = .11435E-3
MEAN_MOTION_DOT = .182E-5
MEAN_MOTION_DDOT = 0

CCSDS_OMM_VERS = 2.0
CREATION_DATE  = 
ORIGINATOR     = 

OBJECT_NAME    = COSMOS 2221
OBJECT_ID      = 1992-080A
CENTER_NAME    = EARTH
REF_FRAME      = TEME
TIME_SYSTEM    = UTC
MEAN_ELEMENT_THEORY = SGP/SGP4

EPOCH          = 2026-01-08T10:36:20.328480
MEAN_MOTION    = 14.95901290
ECCENTRICITY   = .0015744
INCLINATION    = 82.5056
RA_OF_ASC_NODE = 336.7641
ARG_OF_PERICENTER = 40.5946
MEAN_ANOMALY   = 319.6446

EPHEMERIS_TYPE = 0
CLASSIFICATION_TYPE = U
NORAD_CAT_ID   = 22236
ELEMENT_SET_NO = 999
REV_AT_EPOCH   = 77178
BSTAR          = .26016E-3
MEAN_MOTION_DOT = .2942E-4
MEAN_MOTION_DDOT = 0

CCSDS_OMM_VERS = 2.0
CREATION_DATE  = 
ORIGINATOR     = 

OBJECT_NAME    = SL-16 R/B
OBJECT_ID      = 1992-093B
CENTER_NAME    = EARTH
REF_FRAME      = TEME
TIME_SYSTEM    = UTC
MEAN_ELEMENT_THEORY = SGP/SGP4

EPOCH          = 2026-01-08T10:59:02.784768
MEAN_MOTION    = 14.15434101
ECCENTRICITY   = .0003284
INCLINATION    = 71.0213
RA_OF_ASC_NODE = 130.7108
ARG_OF_PERICENTER = 6.8263
MEAN_ANOMALY   = 353.2904

EPHEMERIS_TYPE = 0
CLASSIFICATION_TYPE = U
NORAD_CAT_ID   = 22285
ELEMENT_SET_NO = 999
REV_AT_EPOCH   = 70463
BSTAR          = .53996E-4
MEAN_MOTION_DOT = .58E-6
MEAN_MOTION_DDOT = 0

CCSDS_OMM_VERS = 2.0
CREATION_DATE  = 
ORIGINATOR     = 

OBJECT_NAME    = COSMOS 2228
OBJECT_ID      = 1992-094A
CENTER_NAME    = EARTH
REF_FRAME      = TEME
TIME_SYSTEM    = UTC
MEAN_ELEMENT_THEORY = SGP/SGP4

EPOCH          = 2026-01-08T11:56:32.195904
MEAN_MOTION    = 14.96885189
ECCENTRICITY   = .0018959
INCLINATION    = 82.5192
RA_OF_ASC_NODE = 294.9324
ARG_OF_PERICENTER = 139.9685
MEAN_ANOMALY   = 220.2939

EPHEMERIS_TYPE = 0
CLASSIFICATION_TYPE = U
NORAD_CAT_ID   = 22286
ELEMENT_SET_NO = 999
REV_AT_EPOCH   = 76705
BSTAR          = .20842E-3
MEAN_MOTION_DOT = .2425E-4
MEAN_MOTION_DDOT = 0

